{"norad_cat_id":"64188","object_name":"STARLINK-33929","object_id":"2025-113U","object_type":"PAYLOAD","country_code":"US","epoch":"2026-05-30T04:44:12.122592","creation_date":"2026-05-30T07:46:57","launch_date":"2025-05-28","decay_date":null,"inclination":53.1602,"eccentricity":0.0001336,"mean_motion":15.30200746,"period":94.105,"semimajor_axis":6853.35,"apoapsis":476.13,"periapsis":474.299,"tle_line0":"0 STARLINK-33929","tle_line1":"1 64188U 25113U   26150.19736253  .00040144  00000-0  13602-2 0  9996","tle_line2":"2 64188  53.1602  72.5787 0001336  77.1536 282.9614 15.30200746 57545","fetched_at":"2026-05-30T16:18:06.042337+00:00"}
{"norad_cat_id":"60859","object_name":"CZ-6A DEB","object_id":"2024-140JN","object_type":"DEBRIS","country_code":"PRC","epoch":"2026-05-30T04:44:10.182048","creation_date":"2026-05-30T07:36:53","launch_date":"2024-08-06","decay_date":null,"inclination":88.5667,"eccentricity":0.0065789,"mean_motion":14.4128684,"period":99.911,"semimajor_axis":7132.387,"apoapsis":801.175,"periapsis":707.329,"tle_line0":"0 CZ-6A DEB","tle_line1":"1 60859U 24140JN  26150.19734007  .00003433  00000-0  10303-2 0  9996","tle_line2":"2 60859  88.5667 239.4398 0065789  51.7858 308.9241 14.41286840 93903","fetched_at":"2026-05-30T16:18:06.042337+00:00"}
{"norad_cat_id":"65259","object_name":"OBJECT A","object_id":"2025-180A","object_type":"UNKNOWN","country_code":"PRC","epoch":"2026-05-30T04:44:03.211296","creation_date":"2026-05-30T07:06:42","launch_date":"2025-08-19","decay_date":null,"inclination":97.5169,"eccentricity":0.0012425,"mean_motion":15.22487301,"period":94.582,"semimajor_axis":6876.478,"apoapsis":506.887,"periapsis":489.799,"tle_line0":"0 OBJECT A","tle_line1":"1 65259U 25180A   26150.19725939  .00021279  00000-0  91804-3 0  9998","tle_line2":"2 65259  97.5169 279.0342 0012425  25.6777 334.5074 15.22487301 43052","fetched_at":"2026-05-30T16:18:06.042337+00:00"}
{"norad_cat_id":"31225","object_name":"FENGYUN 1C DEB","object_id":"1999-025BLF","object_type":"DEBRIS","country_code":"PRC","epoch":"2026-05-30T04:44:01.472064","creation_date":"2026-05-30T07:46:57","launch_date":"1999-05-10","decay_date":null,"inclination":98.9782,"eccentricity":0.0087324,"mean_motion":14.18869247,"period":101.489,"semimajor_axis":7207.316,"apoapsis":892.119,"periapsis":766.244,"tle_line0":"0 FENGYUN 1C DEB","tle_line1":"1 31225U 99025BLF 26150.19723926  .00003176  00000-0  14897-2 0  9999","tle_line2":"2 31225  98.9782 230.5104 0087324 230.0876 156.8463 14.18869247982106","fetched_at":"2026-05-30T16:18:06.042337+00:00"}
{"norad_cat_id":"66357","object_name":"STARLINK-35817","object_id":"2025-254K","object_type":"PAYLOAD","country_code":"US","epoch":"2026-05-30T04:44:01.281984","creation_date":"2026-05-30T07:26:56","launch_date":"2025-11-06","decay_date":null,"inclination":53.1579,"eccentricity":7.88e-05,"mean_motion":15.30214821,"period":94.104,"semimajor_axis":6853.308,"apoapsis":475.713,"periapsis":474.633,"tle_line0":"0 STARLINK-35817","tle_line1":"1 66357U 25254K   26150.19723706  .00024858  00000-0  84822-3 0  9998","tle_line2":"2 66357  53.1579 213.9453 0000788  68.9685 291.1400 15.30214821 31458","fetched_at":"2026-05-30T16:18:06.042337+00:00"}
{"norad_cat_id":"63488","object_name":"POSAT 2","object_id":"2025-009DR","object_type":"PAYLOAD","country_code":"POR","epoch":"2026-05-30T04:44:00.981312","creation_date":"2026-05-30T07:46:57","launch_date":"2025-01-14","decay_date":null,"inclination":97.4859,"eccentricity":0.0006124,"mean_motion":15.12448085,"period":95.21,"semimajor_axis":6906.874,"apoapsis":532.969,"periapsis":524.509,"tle_line0":"0 POSAT 2","tle_line1":"1 63488U 25009DR  26150.19723358  .00019634  00000-0  11304-2 0  9991","tle_line2":"2 63488  97.4859 225.5872 0006124 192.4448 167.6633 15.12448085 63929","fetched_at":"2026-05-30T16:18:06.042337+00:00"}
{"norad_cat_id":"60546","object_name":"ICEYE-X39","object_id":"2024-149CG","object_type":"PAYLOAD","country_code":"BRAZ","epoch":"2026-05-30T04:44:00.888864","creation_date":"2026-05-30T07:36:53","launch_date":"2024-08-16","decay_date":null,"inclination":97.6777,"eccentricity":0.0003572,"mean_motion":14.99773152,"period":96.015,"semimajor_axis":6945.734,"apoapsis":570.08,"periapsis":565.118,"tle_line0":"0 ICEYE-X39","tle_line1":"1 60546U 24149CG  26150.19723251  .00004954  00000-0  40538-3 0  9990","tle_line2":"2 60546  97.6777 227.4670 0003572 161.1976 198.9380 14.99773152 97420","fetched_at":"2026-05-30T16:18:06.042337+00:00"}
{"norad_cat_id":"59224","object_name":"STRIX-3","object_id":"2024-047A","object_type":"PAYLOAD","country_code":"JPN","epoch":"2026-05-30T04:43:59.223072","creation_date":"2026-05-30T07:36:53","launch_date":"2024-03-12","decay_date":null,"inclination":97.6614,"eccentricity":0.0015063,"mean_motion":15.19045857,"period":94.796,"semimajor_axis":6886.86,"apoapsis":519.099,"periapsis":498.351,"tle_line0":"0 STRIX-3","tle_line1":"1 59224U 24047A   26150.19721323  .00011294  00000-0  54043-3 0  9997","tle_line2":"2 59224  97.6614 125.6127 0015063 120.7730 239.4989 15.19045857122011","fetched_at":"2026-05-30T16:18:06.042337+00:00"}
{"norad_cat_id":"62622","object_name":"FLOCK 4G 9","object_id":"2025-009P","object_type":"PAYLOAD","country_code":"US","epoch":"2026-05-30T04:43:58.943136","creation_date":"2026-05-30T07:46:57","launch_date":"2025-01-14","decay_date":null,"inclination":97.3965,"eccentricity":0.0005293,"mean_motion":15.2771246,"period":94.259,"semimajor_axis":6860.789,"apoapsis":486.286,"periapsis":479.023,"tle_line0":"0 FLOCK 4G 9","tle_line1":"1 62622U 25009P   26150.19720999  .00013012  00000-0  48272-3 0  9997","tle_line2":"2 62622  97.3965 231.2831 0005293  45.4063 314.7607 15.27712460 76118","fetched_at":"2026-05-30T16:18:06.042337+00:00"}
{"norad_cat_id":"33760","object_name":"COSMOS 2251 DEB","object_id":"1993-036H","object_type":"DEBRIS","country_code":"CIS","epoch":"2026-05-30T04:43:57.328320","creation_date":"2026-05-30T07:26:56","launch_date":"1993-06-16","decay_date":null,"inclination":74.032,"eccentricity":0.0019988,"mean_motion":14.35775054,"period":100.294,"semimajor_axis":7150.629,"apoapsis":786.787,"periapsis":758.201,"tle_line0":"0 COSMOS 2251 DEB","tle_line1":"1 33760U 93036H   26150.19719130  .00000276  00000-0  10424-3 0  9994","tle_line2":"2 33760  74.0320 332.2643 0019988  31.3040  91.7788 14.35775054905427","fetched_at":"2026-05-30T16:18:06.042337+00:00"}
{"norad_cat_id":"10492","object_name":"SL-8 R/B","object_id":"1977-109B","object_type":"ROCKET BODY","country_code":"CIS","epoch":"2026-05-30T04:43:55.634016","creation_date":"2026-05-30T07:26:56","launch_date":"1977-11-24","decay_date":null,"inclination":82.9229,"eccentricity":0.0019885,"mean_motion":13.19786997,"period":109.109,"semimajor_axis":7563.671,"apoapsis":1200.576,"periapsis":1170.495,"tle_line0":"0 SL-8 R/B","tle_line1":"1 10492U 77109B   26150.19717169  .00000041  00000-0  69138-4 0  9991","tle_line2":"2 10492  82.9229 238.7370 0019885   6.7230  19.7539 13.19786997336252","fetched_at":"2026-05-30T16:18:06.042337+00:00"}
{"norad_cat_id":"54383","object_name":"COSMOS 2566","object_id":"2022-163C","object_type":"PAYLOAD","country_code":"CIS","epoch":"2026-05-30T04:43:55.386912","creation_date":"2026-05-30T07:36:53","launch_date":"2022-11-30","decay_date":null,"inclination":67.1408,"eccentricity":0.0001799,"mean_motion":13.97708805,"period":103.026,"semimajor_axis":7279.877,"apoapsis":903.052,"periapsis":900.432,"tle_line0":"0 COSMOS 2566","tle_line1":"1 54383U 22163C   26150.19716883  .00000030  00000-0  74872-4 0  9999","tle_line2":"2 54383  67.1408 145.9093 0001799 106.4271 253.7012 13.97708805178058","fetched_at":"2026-05-30T16:18:06.042337+00:00"}
{"norad_cat_id":"34861","object_name":"COSMOS 2251 DEB","object_id":"1993-036ACF","object_type":"DEBRIS","country_code":"CIS","epoch":"2026-05-30T04:43:50.686752","creation_date":"2026-05-30T07:26:56","launch_date":"1993-06-16","decay_date":null,"inclination":74.0126,"eccentricity":0.0012292,"mean_motion":15.25495766,"period":94.396,"semimajor_axis":6867.434,"apoapsis":497.741,"periapsis":480.858,"tle_line0":"0 COSMOS 2251 DEB","tle_line1":"1 34861U 93036ACF 26150.19711443  .00178789  00000-0  68759-2 0  9994","tle_line2":"2 34861  74.0126  60.9417 0012292 164.8304 351.5929 15.25495766906406","fetched_at":"2026-05-30T16:18:06.042337+00:00"}
{"norad_cat_id":"61557","object_name":"QIANFAN-24","object_id":"2024-185F","object_type":"PAYLOAD","country_code":"PRC","epoch":"2026-05-30T04:43:50.168352","creation_date":"2026-05-30T07:46:57","launch_date":"2024-10-15","decay_date":null,"inclination":88.9827,"eccentricity":0.0011486,"mean_motion":14.24050293,"period":101.12,"semimajor_axis":7189.825,"apoapsis":819.948,"periapsis":803.431,"tle_line0":"0 QIANFAN-24","tle_line1":"1 61557U 24185F   26150.19710843  .00000774  00000-0  33055-3 0  9998","tle_line2":"2 61557  88.9827  57.4893 0011486 103.5639 256.6833 14.24050293 93994","fetched_at":"2026-05-30T16:18:06.042337+00:00"}
{"norad_cat_id":"47692","object_name":"OBJECT B","object_id":"2021-014B","object_type":"UNKNOWN","country_code":"PRC","epoch":"2026-05-30T04:43:50.062944","creation_date":"2026-05-30T07:36:53","launch_date":"2021-02-24","decay_date":null,"inclination":63.4061,"eccentricity":0.0169385,"mean_motion":13.44220792,"period":107.125,"semimajor_axis":7471.735,"apoapsis":1220.16,"periapsis":967.04,"tle_line0":"0 OBJECT B","tle_line1":"1 47692U 21014B   26150.19710721 -.00000028  00000-0  97971-4 0  9996","tle_line2":"2 47692  63.4061 256.1570 0169385   0.9712 359.1610 13.44220792258067","fetched_at":"2026-05-30T16:18:06.042337+00:00"}
